{"type": "FeatureCollection", "features": [ {"type": "Feature", "properties": {"norad_id": 17070, "name": "POLAR BEAR", "group": "nnss", "lat": 33.28946340193997, "lon": -176.52005362662482, "alt_km": 957.8464893649416, "timestamp": "2025-12-26T08:37:54.848927+00:00", "meta": {"OBJECT_NAME": "POLAR BEAR", "OBJECT_ID": "1986-088A", "EPOCH": "2025-12-26T02:02:54.701376", "MEAN_MOTION": 13.75253549, "ECCENTRICITY": 0.0041266, "INCLINATION": 89.6169, "RA_OF_ASC_NODE": 183.2393, "ARG_OF_PERICENTER": 80.8818, "MEAN_ANOMALY": 35.6003, "EPHEMERIS_TYPE": 0, "CLASSIFICATION_TYPE": "U", "NORAD_CAT_ID": 17070, "ELEMENT_SET_NO": 999, "REV_AT_EPOCH": 96162, "BSTAR": 0.00010558, "MEAN_MOTION_DOT": 1.13e-06, "MEAN_MOTION_DDOT": 0}, "tle": {"line1": "1 17070U 86088A   25360.08535534  .00000113  00000+0  10558-3 0  9990", "line2": "2 17070  89.6169 183.2393 0041266  80.8818  35.6003 13.75253549961622"}}, "geometry": {"type": "Point", "coordinates": [-176.52005362662482, 33.28946340193997]}}, {"type": "Feature", "properties": {"norad_id": 18361, "name": "OSCAR 27", "group": "nnss", "lat": -66.51726799578032, "lon": -101.07903496684543, "alt_km": 1061.066328412493, "timestamp": "2025-12-26T08:37:54.848938+00:00", "meta": {"OBJECT_NAME": "OSCAR 27", "OBJECT_ID": "1987-080A", "EPOCH": "2025-12-26T03:50:36.749184", "MEAN_MOTION": 13.44909474, "ECCENTRICITY": 0.0104048, "INCLINATION": 90.3736, "RA_OF_ASC_NODE": 79.774, "ARG_OF_PERICENTER": 185.2058, "MEAN_ANOMALY": 174.8018, "EPHEMERIS_TYPE": 0, "CLASSIFICATION_TYPE": "U", "NORAD_CAT_ID": 18361, "ELEMENT_SET_NO": 999, "REV_AT_EPOCH": 87737, "BSTAR": 0.000166, "MEAN_MOTION_DOT": 1.09e-06, "MEAN_MOTION_DDOT": 0}, "tle": {"line1": "1 18361U 87080A   25360.16014756  .00000109  00000+0  16600-3 0  9993", "line2": "2 18361  90.3736  79.7740 0104048 185.2058 174.8018 13.44909474877375"}}, "geometry": {"type": "Point", "coordinates": [-101.07903496684543, -66.51726799578032]}}, {"type": "Feature", "properties": {"norad_id": 18362, "name": "OSCAR 29", "group": "nnss", "lat": -55.79844540271234, "lon": -100.31023120991657, "alt_km": 1030.4849042013484, "timestamp": "2025-12-26T08:37:54.848949+00:00", "meta": {"OBJECT_NAME": "OSCAR 29", "OBJECT_ID": "1987-080B", "EPOCH": "2025-12-26T04:01:36.827040", "MEAN_MOTION": 13.44450933, "ECCENTRICITY": 0.0104851, "INCLINATION": 90.3748, "RA_OF_ASC_NODE": 80.2344, "ARG_OF_PERICENTER": 208.3196, "MEAN_ANOMALY": 178.7197, "EPHEMERIS_TYPE": 0, "CLASSIFICATION_TYPE": "U", "NORAD_CAT_ID": 18362, "ELEMENT_SET_NO": 999, "REV_AT_EPOCH": 87690, "BSTAR": 0.00014978, "MEAN_MOTION_DOT": 9.8e-07, "MEAN_MOTION_DDOT": 0}, "tle": {"line1": "1 18362U 87080B   25360.16778735  .00000098  00000+0  14978-3 0  9991", "line2": "2 18362  90.3748  80.2344 0104851 208.3196 178.7197 13.44450933876908"}}, "geometry": {"type": "Point", "coordinates": [-100.31023120991657, -55.79844540271234]}}, {"type": "Feature", "properties": {"norad_id": 19070, "name": "OSCAR 23", "group": "nnss", "lat": -83.72935178193174, "lon": 19.73213279399048, "alt_km": 1261.1284449111727, "timestamp": "2025-12-26T08:37:54.848959+00:00", "meta": {"OBJECT_NAME": "OSCAR 23", "OBJECT_ID": "1988-033A", "EPOCH": "2025-12-26T02:08:15.538272", "MEAN_MOTION": 13.2778918, "ECCENTRICITY": 0.0190554, "INCLINATION": 90.3203, "RA_OF_ASC_NODE": 16.8058, "ARG_OF_PERICENTER": 142.902, "MEAN_ANOMALY": 279.094, "EPHEMERIS_TYPE": 0, "CLASSIFICATION_TYPE": "U", "NORAD_CAT_ID": 19070, "ELEMENT_SET_NO": 999, "REV_AT_EPOCH": 82430, "BSTAR": 9.8837e-05, "MEAN_MOTION_DOT": 5.9e-07, "MEAN_MOTION_DDOT": 0}, "tle": {"line1": "1 19070U 88033A   25360.08906873  .00000059  00000+0  98837-4 0  9998", "line2": "2 19070  90.3203  16.8058 0190554 142.9020 279.0940 13.27789180824300"}}, "geometry": {"type": "Point", "coordinates": [19.73213279399048, -83.72935178193174]}}, {"type": "Feature", "properties": {"norad_id": 19071, "name": "OSCAR 32", "group": "nnss", "lat": 30.928009519266258, "lon": 16.754597987552636, "alt_km": 1170.131185760145, "timestamp": "2025-12-26T08:37:54.848969+00:00", "meta": {"OBJECT_NAME": "OSCAR 32", "OBJECT_ID": "1988-033B", "EPOCH": "2025-12-26T01:22:17.949216", "MEAN_MOTION": 13.2795587, "ECCENTRICITY": 0.0189282, "INCLINATION": 90.3208, "RA_OF_ASC_NODE": 16.9375, "ARG_OF_PERICENTER": 129.9224, "MEAN_ANOMALY": 257.8987, "EPHEMERIS_TYPE": 0, "CLASSIFICATION_TYPE": "U", "NORAD_CAT_ID": 19071, "ELEMENT_SET_NO": 999, "REV_AT_EPOCH": 82442, "BSTAR": 0.00012879, "MEAN_MOTION_DOT": 7.4e-07, "MEAN_MOTION_DDOT": 0}, "tle": {"line1": "1 19071U 88033B   25360.05715219  .00000074  00000+0  12879-3 0  9996", "line2": "2 19071  90.3208  16.9375 0189282 129.9224 257.8987 13.27955870824425"}}, "geometry": {"type": "Point", "coordinates": [16.754597987552636, 30.928009519266258]}}, {"type": "Feature", "properties": {"norad_id": 19223, "name": "NOVA 2", "group": "nnss", "lat": -15.384460316676043, "lon": 78.25136830807672, "alt_km": 1156.0505269806254, "timestamp": "2025-12-26T08:37:54.848979+00:00", "meta": {"OBJECT_NAME": "NOVA 2", "OBJECT_ID": "1988-052A", "EPOCH": "2025-12-25T16:57:54.227232", "MEAN_MOTION": 13.22937418, "ECCENTRICITY": 0.00294853, "INCLINATION": 89.9863, "RA_OF_ASC_NODE": 78.256, "ARG_OF_PERICENTER": 340.9131, "MEAN_ANOMALY": 136.6445, "EPHEMERIS_TYPE": 0, "CLASSIFICATION_TYPE": "U", "NORAD_CAT_ID": 19223, "ELEMENT_SET_NO": 999, "REV_AT_EPOCH": 81119, "BSTAR": 0.00013151637, "MEAN_MOTION_DOT": 6.4e-07, "MEAN_MOTION_DDOT": 0}, "tle": {"line1": "1 19223U 88052A   25359.70687763  .00000064  00000+0  13152-3 0  9992", "line2": "2 19223  89.9863  78.2560 0029485 340.9131 136.6445 13.22937418811198"}}, "geometry": {"type": "Point", "coordinates": [78.25136830807672, -15.384460316676043]}}, {"type": "Feature", "properties": {"norad_id": 19419, "name": "OSCAR 25", "group": "nnss", "lat": -54.09389075841873, "lon": 20.334595453916474, "alt_km": 1117.6631140792242, "timestamp": "2025-12-26T08:37:54.848990+00:00", "meta": {"OBJECT_NAME": "OSCAR 25", "OBJECT_ID": "1988-074A", "EPOCH": "2025-12-26T02:01:24.098016", "MEAN_MOTION": 13.42625663, "ECCENTRICITY": 0.0095277, "INCLINATION": 90.0337, "RA_OF_ASC_NODE": 20.2871, "ARG_OF_PERICENTER": 207.2859, "MEAN_ANOMALY": 207.4809, "EPHEMERIS_TYPE": 0, "CLASSIFICATION_TYPE": "U", "NORAD_CAT_ID": 19419, "ELEMENT_SET_NO": 999, "REV_AT_EPOCH": 82819, "BSTAR": 0.00011946, "MEAN_MOTION_DOT": 7.8e-07, "MEAN_MOTION_DDOT": 0}, "tle": {"line1": "1 19419U 88074A   25360.08430669  .00000078  00000+0  11946-3 0  9991", "line2": "2 19419  90.0337  20.2871 0095277 207.2859 207.4809 13.42625663828197"}}, "geometry": {"type": "Point", "coordinates": [20.334595453916474, -54.09389075841873]}}, {"type": "Feature", "properties": {"norad_id": 19420, "name": "OSCAR 31", "group": "nnss", "lat": -6.625366612162341, "lon": -159.36373727057958, "alt_km": 1035.4396980685924, "timestamp": "2025-12-26T08:37:54.849000+00:00", "meta": {"OBJECT_NAME": "OSCAR 31", "OBJECT_ID": "1988-074B", "EPOCH": "2025-12-26T02:39:29.801376", "MEAN_MOTION": 13.42586716, "ECCENTRICITY": 0.0093684, "INCLINATION": 90.0354, "RA_OF_ASC_NODE": 20.6395, "ARG_OF_PERICENTER": 201.3536, "MEAN_ANOMALY": 223.1105, "EPHEMERIS_TYPE": 0, "CLASSIFICATION_TYPE": "U", "NORAD_CAT_ID": 19420, "ELEMENT_SET_NO": 999, "REV_AT_EPOCH": 82830, "BSTAR": 9.7645e-05, "MEAN_MOTION_DOT": 6.6e-07, "MEAN_MOTION_DDOT": 0}, "tle": {"line1": "1 19420U 88074B   25360.11076159  .00000066  00000+0  97645-4 0  9995", "line2": "2 19420  90.0354  20.6395 0093684 201.3536 223.1105 13.42586716828302"}}, "geometry": {"type": "Point", "coordinates": [-159.36373727057958, -6.625366612162341]}}]}